<?xml version="1.0" encoding="UTF-8"?>
<ndm xmlns:xsi="http://www.w3.org/2001/XMLSchema-instance" xsi:noNamespaceSchemaLocation="https://sanaregistry.org/r/ndmxml_unqualified/ndmxml-2.0.0-master-2.0.xsd">
<omm id="CCSDS_OMM_VERS" version="2.0">
<header><CREATION_DATE/><ORIGINATOR/></header><body><segment><metadata><OBJECT_NAME>ORBCOMM FM115</OBJECT_NAME><OBJECT_ID>2015-081H</OBJECT_ID><CENTER_NAME>EARTH</CENTER_NAME><REF_FRAME>TEME</REF_FRAME><TIME_SYSTEM>UTC</TIME_SYSTEM><MEAN_ELEMENT_THEORY>SGP4</MEAN_ELEMENT_THEORY></metadata><data><meanElements><EPOCH>2024-12-03T11:40:13.157760</EPOCH><MEAN_MOTION>14.61751953</MEAN_MOTION><ECCENTRICITY>.0000912</ECCENTRICITY><INCLINATION>46.9979</INCLINATION><RA_OF_ASC_NODE>249.8358</RA_OF_ASC_NODE><ARG_OF_PERICENTER>244.3679</ARG_OF_PERICENTER><MEAN_ANOMALY>115.7114</MEAN_ANOMALY></meanElements><tleParameters><EPHEMERIS_TYPE>0</EPHEMERIS_TYPE><CLASSIFICATION_TYPE>U</CLASSIFICATION_TYPE><NORAD_CAT_ID>41186</NORAD_CAT_ID><ELEMENT_SET_NO>999</ELEMENT_SET_NO><REV_AT_EPOCH>47913</REV_AT_EPOCH><BSTAR>.55514E-3</BSTAR><MEAN_MOTION_DOT>.2622E-4</MEAN_MOTION_DOT><MEAN_MOTION_DDOT>0</MEAN_MOTION_DDOT></tleParameters></data></segment></body></omm>
<omm id="CCSDS_OMM_VERS" version="2.0">
<header><CREATION_DATE/><ORIGINATOR/></header><body><segment><metadata><OBJECT_NAME>ORBCOMM FM108</OBJECT_NAME><OBJECT_ID>2015-081J</OBJECT_ID><CENTER_NAME>EARTH</CENTER_NAME><REF_FRAME>TEME</REF_FRAME><TIME_SYSTEM>UTC</TIME_SYSTEM><MEAN_ELEMENT_THEORY>SGP4</MEAN_ELEMENT_THEORY></metadata><data><meanElements><EPOCH>2024-12-03T05:37:41.579328</EPOCH><MEAN_MOTION>14.57530219</MEAN_MOTION><ECCENTRICITY>.0001648</ECCENTRICITY><INCLINATION>47.0049</INCLINATION><RA_OF_ASC_NODE>311.9582</RA_OF_ASC_NODE><ARG_OF_PERICENTER>113.5141</ARG_OF_PERICENTER><MEAN_ANOMALY>246.5917</MEAN_ANOMALY></meanElements><tleParameters><EPHEMERIS_TYPE>0</EPHEMERIS_TYPE><CLASSIFICATION_TYPE>U</CLASSIFICATION_TYPE><NORAD_CAT_ID>41187</NORAD_CAT_ID><ELEMENT_SET_NO>999</ELEMENT_SET_NO><REV_AT_EPOCH>47820</REV_AT_EPOCH><BSTAR>.73156E-3</BSTAR><MEAN_MOTION_DOT>.3192E-4</MEAN_MOTION_DOT><MEAN_MOTION_DDOT>0</MEAN_MOTION_DDOT></tleParameters></data></segment></body></omm>
<omm id="CCSDS_OMM_VERS" version="2.0">
<header><CREATION_DATE/><ORIGINATOR/></header><body><segment><metadata><OBJECT_NAME>ORBCOMM FM117</OBJECT_NAME><OBJECT_ID>2015-081K</OBJECT_ID><CENTER_NAME>EARTH</CENTER_NAME><REF_FRAME>TEME</REF_FRAME><TIME_SYSTEM>UTC</TIME_SYSTEM><MEAN_ELEMENT_THEORY>SGP4</MEAN_ELEMENT_THEORY></metadata><data><meanElements><EPOCH>2024-12-03T09:45:54.535680</EPOCH><MEAN_MOTION>14.57533285</MEAN_MOTION><ECCENTRICITY>.0001981</ECCENTRICITY><INCLINATION>47.0012</INCLINATION><RA_OF_ASC_NODE>309.9781</RA_OF_ASC_NODE><ARG_OF_PERICENTER>137.9582</ARG_OF_PERICENTER><MEAN_ANOMALY>222.1455</MEAN_ANOMALY></meanElements><tleParameters><EPHEMERIS_TYPE>0</EPHEMERIS_TYPE><CLASSIFICATION_TYPE>U</CLASSIFICATION_TYPE><NORAD_CAT_ID>41188</NORAD_CAT_ID><ELEMENT_SET_NO>999</ELEMENT_SET_NO><REV_AT_EPOCH>47827</REV_AT_EPOCH><BSTAR>.72483E-3</BSTAR><MEAN_MOTION_DOT>.3161E-4</MEAN_MOTION_DOT><MEAN_MOTION_DDOT>0</MEAN_MOTION_DDOT></tleParameters></data></segment></body></omm>
<omm id="CCSDS_OMM_VERS" version="2.0">
<header><CREATION_DATE/><ORIGINATOR/></header><body><segment><metadata><OBJECT_NAME>ORBCOMM FM116</OBJECT_NAME><OBJECT_ID>2015-081L</OBJECT_ID><CENTER_NAME>EARTH</CENTER_NAME><REF_FRAME>TEME</REF_FRAME><TIME_SYSTEM>UTC</TIME_SYSTEM><MEAN_ELEMENT_THEORY>SGP4</MEAN_ELEMENT_THEORY></metadata><data><meanElements><EPOCH>2024-12-03T12:48:15.097248</EPOCH><MEAN_MOTION>14.57514934</MEAN_MOTION><ECCENTRICITY>.0002965</ECCENTRICITY><INCLINATION>47.0021</INCLINATION><RA_OF_ASC_NODE>39.2188</RA_OF_ASC_NODE><ARG_OF_PERICENTER>245.2017</ARG_OF_PERICENTER><MEAN_ANOMALY>114.8560</MEAN_ANOMALY></meanElements><tleParameters><EPHEMERIS_TYPE>0</EPHEMERIS_TYPE><CLASSIFICATION_TYPE>U</CLASSIFICATION_TYPE><NORAD_CAT_ID>41189</NORAD_CAT_ID><ELEMENT_SET_NO>999</ELEMENT_SET_NO><REV_AT_EPOCH>47710</REV_AT_EPOCH><BSTAR>.70814E-3</BSTAR><MEAN_MOTION_DOT>.3083E-4</MEAN_MOTION_DOT><MEAN_MOTION_DDOT>0</MEAN_MOTION_DDOT></tleParameters></data></segment></body></omm>
</ndm>
