ORBCOMM FM115           
1 41186U 15081H   24338.48626340  .00002622  00000+0  55514-3 0  9992
2 41186  46.9979 249.8358 0000912 244.3679 115.7114 14.61751953479138
ORBCOMM FM108           
1 41187U 15081J   24338.23450902  .00003192  00000+0  73156-3 0  9990
2 41187  47.0049 311.9582 0001648 113.5141 246.5917 14.57530219478203
ORBCOMM FM117           
1 41188U 15081K   24338.40688120  .00003161  00000+0  72483-3 0  9993
2 41188  47.0012 309.9781 0001981 137.9582 222.1455 14.57533285478271
ORBCOMM FM116           
1 41189U 15081L   24338.53350807  .00003083  00000+0  70814-3 0  9995
2 41189  47.0021  39.2188 0002965 245.2017 114.8560 14.57514934477100
